[{"OBJECT_NAME":"STARLINK-4687","OBJECT_ID":"2022-111M","EPOCH":"2026-03-09T21:00:21.609504","MEAN_MOTION":15.08832094,"ECCENTRICITY":0.00012401,"INCLINATION":53.217,"RA_OF_ASC_NODE":273.326,"ARG_OF_PERICENTER":81.8434,"MEAN_ANOMALY":278.2699,"EPHEMERIS_TYPE":0,"CLASSIFICATION_TYPE":"U","NORAD_CAT_ID":53784,"ELEMENT_SET_NO":999,"REV_AT_EPOCH":19372,"BSTAR":2.9043371e-5,"MEAN_MOTION_DOT":1.74e-6,"MEAN_MOTION_DDOT":0},{"OBJECT_NAME":"DMSP 5D-2 F11 DEB","OBJECT_ID":"1991-082AJ","EPOCH":"2026-03-09T06:39:32.486112","MEAN_MOTION":15.08629375,"ECCENTRICITY":0.00070318,"INCLINATION":98.5181,"RA_OF_ASC_NODE":189.4283,"ARG_OF_PERICENTER":237.8685,"MEAN_ANOMALY":152.6153,"EPHEMERIS_TYPE":0,"CLASSIFICATION_TYPE":"U","NORAD_CAT_ID":28321,"ELEMENT_SET_NO":999,"REV_AT_EPOCH":14288,"BSTAR":0.0082823802,"MEAN_MOTION_DOT":0.00131946,"MEAN_MOTION_DDOT":0}]
